QIANFAN-57              
1 62787U 25016C   26027.59680639  .00000147  00000+0  20860-3 0  9997
2 62787  88.9758  98.4690 0002208  87.1583 272.9821 13.50991928 53395
QIANFAN-58              
1 62788U 25016D   26027.64200039  .00000132  00000+0  18625-3 0  9996
2 62788  88.9727  98.2817 0013576 202.3356 157.7205 13.50993809 53442
QIANFAN-59              
1 62789U 25016E   26027.59266521  .00000144  00000+0  20471-3 0  9994
2 62789  88.9751  98.3715 0013790 206.5965 153.4480 13.50989897 53437
QIANFAN-60              
1 62790U 25016F   26027.62553708  .00000151  00000+0  21570-3 0  9995
2 62790  88.9732  98.3307 0015461 203.6806 156.3635 13.50987968 53424
QIANFAN-61              
1 62791U 25016G   26027.58443191  .00000139  00000+0  19662-3 0  9990
2 62791  88.9799  98.5292 0014403 202.6531 157.3986 13.50989300 53435
QIANFAN-62              
1 62792U 25016H   26027.58854595  .00000145  00000+0  20549-3 0  9998
2 62792  88.9746  98.3724 0015766 203.6857 156.3570 13.50991930 53420
QIANFAN-63              
1 62793U 25016J   26027.61322151  .00000134  00000+0  18864-3 0  9996
2 62793  88.9752  98.3244 0015648 209.0966 150.9314 13.50990151 53469
QIANFAN-64              
1 62794U 25016K   26027.58030686  .00000132  00000+0  18515-3 0  9993
2 62794  88.9739  98.2957 0013834 200.9389 159.1197 13.50988599 53451
